{
  "type": "FeatureCollection",
  "features": [
    {
      "type": "Feature",
      "properties": {
        "norad_id": 36050,
        "name": "COSMOS 2251 DEB",
        "group": "cosmos-2251-debris",
        "lat": -67.24529010898155,
        "lon": 77.28578569779894,
        "alt_km": 525.39573716614,
        "timestamp": "2025-12-02T19:35:50.951705+00:00",
        "meta_object_name": "COSMOS 2251 DEB",
        "meta_object_id": "1993-036AXM",
        "meta_epoch": "2025-11-29T10:28:15.671136",
        "meta_mean_motion": 15.00734928,
        "meta_eccentricity": 0.00892831,
        "meta_inclination": 74.0316,
        "meta_ra_of_asc_node": 221.1088,
        "meta_arg_of_pericenter": 303.7997,
        "meta_mean_anomaly": 55.471,
        "meta_ephemeris_type": 0,
        "meta_classification_type": "U",
        "meta_norad_cat_id": 36050,
        "meta_element_set_no": 999,
        "meta_rev_at_epoch": 66835,
        "meta_bstar": 0.00061877137,
        "meta_mean_motion_dot": 8.506e-05,
        "meta_mean_motion_ddot": 0,
        "tle_line1": "1 36050U 93036AXM 25333.43629249  .00008506  00000+0  61877-3 0  9990",
        "tle_line2": "2 36050  74.0316 221.1088 0089283 303.7997  55.4710 15.00734928668356"
      },
      "geometry": {
        "type": "Point",
        "coordinates": [
          77.28578569779894,
          -67.24529010898155
        ]
      }
    },
    {
      "type": "Feature",
      "properties": {
        "norad_id": 36053,
        "name": "COSMOS 2251 DEB",
        "group": "cosmos-2251-debris",
        "lat": -67.29971605620352,
        "lon": 127.95769822630676,
        "alt_km": 732.2375847962057,
        "timestamp": "2025-12-02T19:35:50.951716+00:00",
        "meta_object_name": "COSMOS 2251 DEB",
        "meta_object_id": "1993-036AXQ",
        "meta_epoch": "2025-12-01T06:02:04.873920",
        "meta_mean_motion": 14.56926822,
        "meta_eccentricity": 0.0033176,
        "meta_inclination": 73.8721,
        "meta_ra_of_asc_node": 174.7239,
        "meta_arg_of_pericenter": 127.7081,
        "meta_mean_anomaly": 232.7098,
        "meta_ephemeris_type": 0,
        "meta_classification_type": "U",
        "meta_norad_cat_id": 36053,
        "meta_element_set_no": 999,
        "meta_rev_at_epoch": 87277,
        "meta_bstar": 0.0017117,
        "meta_mean_motion_dot": 7.72e-05,
        "meta_mean_motion_ddot": 0,
        "tle_line1": "1 36053U 93036AXQ 25335.25144530  .00007720  00000+0  17117-2 0  9994",
        "tle_line2": "2 36053  73.8721 174.7239 0033176 127.7081 232.7098 14.56926822872773"
      },
      "geometry": {
        "type": "Point",
        "coordinates": [
          127.95769822630676,
          -67.29971605620352
        ]
      }
    },
    {
      "type": "Feature",
      "properties": {
        "norad_id": 36058,
        "name": "COSMOS 2251 DEB",
        "group": "cosmos-2251-debris",
        "lat": -3.543139924734968,
        "lon": 51.355134715944,
        "alt_km": 732.0939603292536,
        "timestamp": "2025-12-02T19:35:50.951726+00:00",
        "meta_object_name": "COSMOS 2251 DEB",
        "meta_object_id": "1993-036AXV",
        "meta_epoch": "2025-11-30T23:10:11.236512",
        "meta_mean_motion": 14.58588608,
        "meta_eccentricity": 0.00452994,
        "meta_inclination": 74.0241,
        "meta_ra_of_asc_node": 55.8971,
        "meta_arg_of_pericenter": 192.6971,
        "meta_mean_anomaly": 167.3058,
        "meta_ephemeris_type": 0,
        "meta_classification_type": "U",
        "meta_norad_cat_id": 36058,
        "meta_element_set_no": 999,
        "meta_rev_at_epoch": 65939,
        "meta_bstar": 0.00077118146,
        "meta_mean_motion_dot": 3.611e-05,
        "meta_mean_motion_ddot": 0,
        "tle_line1": "1 36058U 93036AXV 25334.96540783  .00003611  00000+0  77118-3 0  9999",
        "tle_line2": "2 36058  74.0241  55.8971 0045299 192.6971 167.3058 14.58588608659396"
      },
      "geometry": {
        "type": "Point",
        "coordinates": [
          51.355134715944,
          -3.543139924734968
        ]
      }
    },
    {
      "type": "Feature",
      "properties": {
        "norad_id": 36060,
        "name": "COSMOS 2251 DEB",
        "group": "cosmos-2251-debris",
        "lat": 43.66174399007207,
        "lon": 57.1062536084607,
        "alt_km": 756.4899682918067,
        "timestamp": "2025-12-02T19:35:50.951737+00:00",
        "meta_object_name": "COSMOS 2251 DEB",
        "meta_object_id": "1993-036AXX",
        "meta_epoch": "2025-12-02T00:39:45.634464",
        "meta_mean_motion": 14.41957589,
        "meta_eccentricity": 0.00148938,
        "meta_inclination": 74.0292,
        "meta_ra_of_asc_node": 254.4297,
        "meta_arg_of_pericenter": 352.6862,
        "meta_mean_anomaly": 7.4074,
        "meta_ephemeris_type": 0,
        "meta_classification_type": "U",
        "meta_norad_cat_id": 36060,
        "meta_element_set_no": 999,
        "meta_rev_at_epoch": 84855,
        "meta_bstar": 0.00041599458,
        "meta_mean_motion_dot": 1.339e-05,
        "meta_mean_motion_ddot": 0,
        "tle_line1": "1 36060U 93036AXX 25336.02761151  .00001339  00000+0  41599-3 0  9994",
        "tle_line2": "2 36060  74.0292 254.4297 0014893 352.6862   7.4074 14.41957589848556"
      },
      "geometry": {
        "type": "Point",
        "coordinates": [
          57.1062536084607,
          43.66174399007207
        ]
      }
    },
    {
      "type": "Feature",
      "properties": {
        "norad_id": 36061,
        "name": "COSMOS 2251 DEB",
        "group": "cosmos-2251-debris",
        "lat": -65.67096754621774,
        "lon": -122.76001656965201,
        "alt_km": 807.1832269930701,
        "timestamp": "2025-12-02T19:35:50.951747+00:00",
        "meta_object_name": "COSMOS 2251 DEB",
        "meta_object_id": "1993-036AXY",
        "meta_epoch": "2025-12-02T10:03:29.896128",
        "meta_mean_motion": 14.33681978,
        "meta_eccentricity": 0.0036906,
        "meta_inclination": 74.0244,
        "meta_ra_of_asc_node": 18.6507,
        "meta_arg_of_pericenter": 109.9251,
        "meta_mean_anomaly": 250.5883,
        "meta_ephemeris_type": 0,
        "meta_classification_type": "U",
        "meta_norad_cat_id": 36061,
        "meta_element_set_no": 999,
        "meta_rev_at_epoch": 64956,
        "meta_bstar": 0.00036059,
        "meta_mean_motion_dot": 9.82e-06,
        "meta_mean_motion_ddot": 0,
        "tle_line1": "1 36061U 93036AXY 25336.41909602  .00000982  00000+0  36059-3 0  9991",
        "tle_line2": "2 36061  74.0244  18.6507 0036906 109.9251 250.5883 14.33681978649568"
      },
      "geometry": {
        "type": "Point",
        "coordinates": [
          -122.76001656965201,
          -65.67096754621774
        ]
      }
    },
    {
      "type": "Feature",
      "properties": {
        "norad_id": 36073,
        "name": "COSMOS 2251 DEB",
        "group": "cosmos-2251-debris",
        "lat": -53.9397593934798,
        "lon": -42.40369619213247,
        "alt_km": 787.3697481049312,
        "timestamp": "2025-12-02T19:35:50.951757+00:00",
        "meta_object_name": "COSMOS 2251 DEB",
        "meta_object_id": "1993-036AYL",
        "meta_epoch": "2025-12-01T08:43:32.794464",
        "meta_mean_motion": 14.34928721,
        "meta_eccentricity": 0.00234073,
        "meta_inclination": 74.0321,
        "meta_ra_of_asc_node": 343.4137,
        "meta_arg_of_pericenter": 54.867,
        "meta_mean_anomaly": 305.4671,
        "meta_ephemeris_type": 0,
        "meta_classification_type": "U",
        "meta_norad_cat_id": 36073,
        "meta_element_set_no": 999,
        "meta_rev_at_epoch": 70044,
        "meta_bstar": 0.00025558924,
        "meta_mean_motion_dot": 7.03e-06,
        "meta_mean_motion_ddot": 0,
        "tle_line1": "1 36073U 93036AYL 25335.36357401  .00000703  00000+0  25559-3 0  9995",
        "tle_line2": "2 36073  74.0321 343.4137 0023407  54.8670 305.4671 14.34928721700441"
      },
      "geometry": {
        "type": "Point",
        "coordinates": [
          -42.40369619213247,
          -53.9397593934798
        ]
      }
    },
    {
      "type": "Feature",
      "properties": {
        "norad_id": 36074,
        "name": "COSMOS 2251 DEB",
        "group": "cosmos-2251-debris",
        "lat": 49.07463247789148,
        "lon": 159.65851880118956,
        "alt_km": 716.9365740393396,
        "timestamp": "2025-12-02T19:35:50.951767+00:00",
        "meta_object_name": "COSMOS 2251 DEB",
        "meta_object_id": "1993-036AYM",
        "meta_epoch": "2025-11-30T08:47:56.269536",
        "meta_mean_motion": 14.43612377,
        "meta_eccentricity": 0.00417412,
        "meta_inclination": 73.9972,
        "meta_ra_of_asc_node": 3.551,
        "meta_arg_of_pericenter": 99.6494,
        "meta_mean_anomaly": 260.9382,
        "meta_ephemeris_type": 0,
        "meta_classification_type": "U",
        "meta_norad_cat_id": 36074,
        "meta_element_set_no": 999,
        "meta_rev_at_epoch": 85731,
        "meta_bstar": 0.00086426668,
        "meta_mean_motion_dot": 2.936e-05,
        "meta_mean_motion_ddot": 0,
        "tle_line1": "1 36074U 93036AYM 25334.36662349  .00002936  00000+0  86427-3 0  9996",
        "tle_line2": "2 36074  73.9972   3.5510 0041741  99.6494 260.9382 14.43612377857313"
      },
      "geometry": {
        "type": "Point",
        "coordinates": [
          159.65851880118956,
          49.07463247789148
        ]
      }
    }
  ]
}